{"type":"FeatureCollection","features":[{"type":"Feature","properties":{"NUTS_ID":"BE10","LEVL_CODE":2,"CNTR_CODE":"BE","NAME_LATN":"Région de Bruxelles-Capitale/ Brussels Hoofdstedelijk Gewest","NUTS_NAME":"Région de Bruxelles-Capitale/ Brussels Hoofdstedelijk Gewest","MOUNT_TYPE":0,"URBN_TYPE":0,"COAST_TYPE":0,"NAME_ENGL":"Belgium","NAME_FREN":"Belgique","ISO3_CODE":"BEL","SVRG_UN":"UN Member State","CAPT":"Brussels","EU_STAT":"T","EFTA_STAT":"F","CC_STAT":"F","NAME_GERM":"Belgien"},"geometry":{"type":"MultiPolygon","coordinates":[[[[4.283083476000058,50.813608929000054],[4.288827063000042,50.891802847000065],[4.43499926100003,50.89895331000008],[4.485078704000045,50.793103331000054],[4.384367978000057,50.759743024000045],[4.283083476000058,50.813608929000054]]]]}},{"type":"Feature","properties":{"NUTS_ID":"BE21","LEVL_CODE":2,"CNTR_CODE":"BE","NAME_LATN":"Prov. Antwerpen","NUTS_NAME":"Prov. Antwerpen","MOUNT_TYPE":0,"URBN_TYPE":0,"COAST_TYPE":0,"NAME_ENGL":"Belgium","NAME_FREN":"Belgique","ISO3_CODE":"BEL","SVRG_UN":"UN Member State","CAPT":"Brussels","EU_STAT":"T","EFTA_STAT":"F","CC_STAT":"F","NAME_GERM":"Belgien"},"geometry":{"type":"MultiPolygon","coordinates":[[[[4.759926,51.50246449900004],[4.864001759000075,51.43362119900007],[5.040817598000046,51.46673077200006],[5.10218,51.42900499900003],[5.110783032000029,51.348479904000044],[5.237716500000033,51.26160049900005],[5.261073500000066,51.14696499900003],[4.981574500000022,51.03488549900004],[4.789319,51.03892899900006],[4.528663,50.99226449900004],[4.240999,51.036868999000035],[4.175792,51.101211499000044],[4.307828500000028,51.12503449900004],[4.242049,51.35396699900008],[4.243669500000067,51.37472949900007],[4.279565,51.376017499000056],[4.391174101000047,51.366223683000044],[4.409141115000068,51.44687538900007],[4.490048600000023,51.470012686000075],[4.669544,51.42638399900005],[4.759926,51.50246449900004]]]]}},{"type":"Feature","properties":{"NUTS_ID":"BE22","LEVL_CODE":2,"CNTR_CODE":"BE","NAME_LATN":"Prov. Limburg (BE)","NUTS_NAME":"Prov. Limburg (BE)","MOUNT_TYPE":0,"URBN_TYPE":0,"COAST_TYPE":0,"NAME_ENGL":"Belgium","NAME_FREN":"Belgique","ISO3_CODE":"BEL","SVRG_UN":"UN Member State","CAPT":"Brussels","EU_STAT":"T","EFTA_STAT":"F","CC_STAT":"F","NAME_GERM":"Belgien"},"geometry":{"type":"MultiPolygon","coordinates":[[[[5.687622,50.811923999000044],[5.431686500000069,50.71980299900008],[5.236913,50.727272999000036],[5.103480500000046,50.70906399900008],[5.165796862000036,50.891388893000055],[5.068277358000046,50.93523136500005],[5.10374256700004,51.02321943800007],[4.981574500000022,51.03488549900004],[5.261073500000066,51.14696499900003],[5.237716500000033,51.26160049900005],[5.500421073000041,51.28538661500005],[5.566283500000054,51.22083649900003],[5.79015204600006,51.16172424000007],[5.798274,51.05985349900004],[5.766125500000044,51.00871549900006],[5.670129720000034,50.87356368800005],[5.687622,50.811923999000044]]],[[[5.892073,50.75523749900003],[5.819052,50.71455749900008],[5.682000500000072,50.75744649900008],[5.773966918000042,50.774515059000066],[5.892073,50.75523749900003]]]]}},{"type":"Feature","properties":{"NUTS_ID":"BE23","LEVL_CODE":2,"CNTR_CODE":"BE","NAME_LATN":"Prov. Oost-Vlaanderen","NUTS_NAME":"Prov. Oost-Vlaanderen","MOUNT_TYPE":0,"URBN_TYPE":0,"COAST_TYPE":0,"NAME_ENGL":"Belgium","NAME_FREN":"Belgique","ISO3_CODE":"BEL","SVRG_UN":"UN Member State","CAPT":"Brussels","EU_STAT":"T","EFTA_STAT":"F","CC_STAT":"F","NAME_GERM":"Belgien"},"geometry":{"type":"MultiPolygon","coordinates":[[[[4.242049,51.35396699900008],[4.307828500000028,51.12503449900004],[4.175792,51.101211499000044],[4.240999,51.036868999000035],[4.147153,50.96939849900008],[4.033918896000046,50.78861907000004],[3.895736500000055,50.73294449900004],[3.815390500000035,50.750724999000056],[3.775676500000031,50.747892499000045],[3.541272500000048,50.733700499000065],[3.460305500000061,50.76589899900006],[3.50061596200004,50.80697524000004],[3.466746500000056,50.90209649900004],[3.419824,50.91093499900006],[3.447136286000045,51.00051661100008],[3.331306,51.09887299900004],[3.41093,51.15988899900003],[3.380661,51.27429949900005],[3.549289543000043,51.290553799000065],[3.750397244000055,51.266527720000056],[3.856339500000047,51.21105599900005],[3.977666500000055,51.22513199900004],[4.234817500000077,51.348253999000065],[4.242049,51.35396699900008]]]]}},{"type":"Feature","properties":{"NUTS_ID":"BE24","LEVL_CODE":2,"CNTR_CODE":"BE","NAME_LATN":"Prov. Vlaams-Brabant","NUTS_NAME":"Prov. Vlaams-Brabant","MOUNT_TYPE":0,"URBN_TYPE":0,"COAST_TYPE":0,"NAME_ENGL":"Belgium","NAME_FREN":"Belgique","ISO3_CODE":"BEL","SVRG_UN":"UN Member State","CAPT":"Brussels","EU_STAT":"T","EFTA_STAT":"F","CC_STAT":"F","NAME_GERM":"Belgien"},"geometry":{"type":"MultiPolygon","coordinates":[[[[5.10374256700004,51.02321943800007],[5.068277358000046,50.93523136500005],[5.165796862000036,50.891388893000055],[5.103480500000046,50.70906399900008],[5.019566500000053,50.750761999000076],[4.746269694000034,50.79695940600004],[4.597269,50.76353449900006],[4.250317217000031,50.695005439000056],[4.145533201000035,50.72298443400007],[4.100483,50.70595549900003],[3.949402108000072,50.691571880000026],[3.895736500000055,50.73294449900004],[4.033918896000046,50.78861907000004],[4.147153,50.96939849900008],[4.240999,51.036868999000035],[4.528663,50.99226449900004],[4.789319,51.03892899900006],[4.981574500000022,51.03488549900004],[5.10374256700004,51.02321943800007]],[[4.283083476000058,50.813608929000054],[4.384367978000057,50.759743024000045],[4.485078704000045,50.793103331000054],[4.43499926100003,50.89895331000008],[4.288827063000042,50.891802847000065],[4.283083476000058,50.813608929000054]]]]}},{"type":"Feature","properties":{"NUTS_ID":"BE25","LEVL_CODE":2,"CNTR_CODE":"BE","NAME_LATN":"Prov. West-Vlaanderen","NUTS_NAME":"Prov. West-Vlaanderen","MOUNT_TYPE":0,"URBN_TYPE":0,"COAST_TYPE":0,"NAME_ENGL":"Belgium","NAME_FREN":"Belgique","ISO3_CODE":"BEL","SVRG_UN":"UN Member State","CAPT":"Brussels","EU_STAT":"T","EFTA_STAT":"F","CC_STAT":"F","NAME_GERM":"Belgien"},"geometry":{"type":"MultiPolygon","coordinates":[[[[3.50061596200004,50.80697524000004],[3.460305500000061,50.76589899900006],[3.324118,50.72230899900006],[3.277564853000058,50.757185838000055],[3.176996,50.75616449900008],[3.098481,50.77901899900007],[3.018708500000059,50.773532999000054],[2.958764785000028,50.797896552000054],[2.856343546000062,50.74538030400004],[2.863276,50.70834349900008],[2.647986039000045,50.825013470000044],[2.607036,50.91268949900007],[2.577692116000037,51.00051661100008],[2.546011,51.08938199900007],[2.749051500000064,51.16176999900006],[3.110688500000037,51.31225949900005],[3.365787500000067,51.36983549900003],[3.380661,51.27429949900005],[3.41093,51.15988899900003],[3.331306,51.09887299900004],[3.447136286000045,51.00051661100008],[3.419824,50.91093499900006],[3.466746500000056,50.90209649900004],[3.50061596200004,50.80697524000004]]]]}},{"type":"Feature","properties":{"NUTS_ID":"BE31","LEVL_CODE":2,"CNTR_CODE":"BE","NAME_LATN":"Prov. Brabant Wallon","NUTS_NAME":"Prov. Brabant Wallon","MOUNT_TYPE":0,"URBN_TYPE":0,"COAST_TYPE":0,"NAME_ENGL":"Belgium","NAME_FREN":"Belgique","ISO3_CODE":"BEL","SVRG_UN":"UN Member State","CAPT":"Brussels","EU_STAT":"T","EFTA_STAT":"F","CC_STAT":"F","NAME_GERM":"Belgien"},"geometry":{"type":"MultiPolygon","coordinates":[[[[5.019566500000053,50.750761999000076],[4.983341,50.642242499000076],[4.577538,50.54228599900006],[4.33964850600006,50.58105556600003],[4.247219500000028,50.596118999000055],[4.12615044000006,50.686742680000066],[4.100483,50.70595549900003],[4.145533201000035,50.72298443400007],[4.250317217000031,50.695005439000056],[4.597269,50.76353449900006],[4.746269694000034,50.79695940600004],[5.019566500000053,50.750761999000076]]]]}},{"type":"Feature","properties":{"NUTS_ID":"BE32","LEVL_CODE":2,"CNTR_CODE":"BE","NAME_LATN":"Prov. Hainaut","NUTS_NAME":"Prov. Hainaut","MOUNT_TYPE":0,"URBN_TYPE":0,"COAST_TYPE":0,"NAME_ENGL":"Belgium","NAME_FREN":"Belgique","ISO3_CODE":"BEL","SVRG_UN":"UN Member State","CAPT":"Brussels","EU_STAT":"T","EFTA_STAT":"F","CC_STAT":"F","NAME_GERM":"Belgien"},"geometry":{"type":"MultiPolygon","coordinates":[[[[3.460305500000061,50.76589899900006],[3.541272500000048,50.733700499000065],[3.775676500000031,50.747892499000045],[3.815390500000035,50.750724999000056],[3.895736500000055,50.73294449900004],[3.949402108000072,50.691571880000026],[4.100483,50.70595549900003],[4.12615044000006,50.686742680000066],[4.247219500000028,50.596118999000055],[4.33964850600006,50.58105556600003],[4.577538,50.54228599900006],[4.585938980000037,50.39707601100008],[4.588662500000055,50.321315999000035],[4.474987,50.32760999900006],[4.336552463000032,50.250557066000056],[4.432494,49.94161599900008],[4.233133,49.95782849900007],[4.140853,49.97875999900003],[4.206924001000061,50.079774446000044],[4.185827248000066,50.237258860000054],[4.053077336000058,50.338948009000035],[4.027774500000021,50.35833049900003],[3.71703122100007,50.32705652400006],[3.67326848600004,50.39707601100008],[3.65551,50.46173549900004],[3.615081500000031,50.490398999000035],[3.549289543000043,50.49680294900003],[3.310992605000024,50.52240952600005],[3.245294,50.713009499000066],[3.176996,50.75616449900008],[3.277564853000058,50.757185838000055],[3.324118,50.72230899900006],[3.460305500000061,50.76589899900006]]],[[[3.018708500000059,50.773532999000054],[2.863276,50.70834349900008],[2.856343546000062,50.74538030400004],[2.958764785000028,50.797896552000054],[3.018708500000059,50.773532999000054]]]]}},{"type":"Feature","properties":{"NUTS_ID":"BE33","LEVL_CODE":2,"CNTR_CODE":"BE","NAME_LATN":"Prov. Liège","NUTS_NAME":"Prov. Liège","MOUNT_TYPE":0,"URBN_TYPE":0,"COAST_TYPE":0,"NAME_ENGL":"Belgium","NAME_FREN":"Belgique","ISO3_CODE":"BEL","SVRG_UN":"UN Member State","CAPT":"Brussels","EU_STAT":"T","EFTA_STAT":"F","CC_STAT":"F","NAME_GERM":"Belgien"},"geometry":{"type":"MultiPolygon","coordinates":[[[[5.682000500000072,50.75744649900008],[5.819052,50.71455749900008],[5.892073,50.75523749900003],[6.020999,50.75429549900008],[6.20862405500003,50.633562977000054],[6.189312500000028,50.56609399900003],[6.192200500000069,50.521055499000056],[6.315556,50.49704249900003],[6.405028500000071,50.32330849900006],[6.365096101000063,50.31400240700003],[6.185575329000073,50.22320584100004],[6.137662500000033,50.12995149900007],[6.02489950000006,50.18277949900005],[5.980197500000031,50.32985299900008],[5.721549500000037,50.26198949900004],[5.675838500000054,50.36851499900007],[5.517010191000054,50.412482314000044],[5.393235,50.37936399900008],[5.275000071000022,50.39707601100008],[5.221259500000031,50.41729749900003],[5.028495,50.58882149900006],[4.983341,50.642242499000076],[5.019566500000053,50.750761999000076],[5.103480500000046,50.70906399900008],[5.236913,50.727272999000036],[5.431686500000069,50.71980299900008],[5.687622,50.811923999000044],[5.682000500000072,50.75744649900008]]]]}},{"type":"Feature","properties":{"NUTS_ID":"BE34","LEVL_CODE":2,"CNTR_CODE":"BE","NAME_LATN":"Prov. Luxembourg (BE)","NUTS_NAME":"Prov. Luxembourg (BE)","MOUNT_TYPE":0,"URBN_TYPE":0,"COAST_TYPE":0,"NAME_ENGL":"Belgium","NAME_FREN":"Belgique","ISO3_CODE":"BEL","SVRG_UN":"UN Member State","CAPT":"Brussels","EU_STAT":"T","EFTA_STAT":"F","CC_STAT":"F","NAME_GERM":"Belgien"},"geometry":{"type":"MultiPolygon","coordinates":[[[[5.675838500000054,50.36851499900007],[5.721549500000037,50.26198949900004],[5.980197500000031,50.32985299900008],[6.02489950000006,50.18277949900005],[5.89939664700006,50.10304384600005],[5.746319,49.85359499900005],[5.893724950000035,49.66488392800005],[5.818117,49.54631049900007],[5.734556,49.545690499000045],[5.470883,49.49723799900005],[5.393511,49.61711099900003],[5.153738500000031,49.717925999000045],[4.969431,49.80182599900007],[5.096148482000046,49.92676004700007],[5.006610985000066,50.047018328000036],[5.263063500000044,50.10848999900003],[5.260211832000039,50.20052413800005],[5.380193663000057,50.29224712600006],[5.393235,50.37936399900008],[5.517010191000054,50.412482314000044],[5.675838500000054,50.36851499900007]]]]}},{"type":"Feature","properties":{"NUTS_ID":"BE35","LEVL_CODE":2,"CNTR_CODE":"BE","NAME_LATN":"Prov. Namur","NUTS_NAME":"Prov. Namur","MOUNT_TYPE":0,"URBN_TYPE":0,"COAST_TYPE":0,"NAME_ENGL":"Belgium","NAME_FREN":"Belgique","ISO3_CODE":"BEL","SVRG_UN":"UN Member State","CAPT":"Brussels","EU_STAT":"T","EFTA_STAT":"F","CC_STAT":"F","NAME_GERM":"Belgien"},"geometry":{"type":"MultiPolygon","coordinates":[[[[5.393235,50.37936399900008],[5.380193663000057,50.29224712600006],[5.260211832000039,50.20052413800005],[5.263063500000044,50.10848999900003],[5.006610985000066,50.047018328000036],[5.096148482000046,49.92676004700007],[4.969431,49.80182599900007],[4.870468252000023,49.80953554900003],[4.809812263000026,49.97181672500005],[4.852444563000063,50.12700594000006],[4.796697,50.14867799900003],[4.662897003000069,49.99426938400006],[4.432494,49.94161599900008],[4.336552463000032,50.250557066000056],[4.474987,50.32760999900006],[4.588662500000055,50.321315999000035],[4.585938980000037,50.39707601100008],[4.577538,50.54228599900006],[4.983341,50.642242499000076],[5.028495,50.58882149900006],[5.221259500000031,50.41729749900003],[5.275000071000022,50.39707601100008],[5.393235,50.37936399900008]]]]}}]}